[{"OBJECT_NAME":"STARLINK-32400","OBJECT_ID":"2024-193J","EPOCH":"2025-08-24T09:52:08.562144","MEAN_MOTION":15.30194208,"ECCENTRICITY":0.00011283,"INCLINATION":53.159,"RA_OF_ASC_NODE":285.129,"ARG_OF_PERICENTER":78.2729,"MEAN_ANOMALY":281.8399,"EPHEMERIS_TYPE":0,"CLASSIFICATION_TYPE":"U","NORAD_CAT_ID":61669,"ELEMENT_SET_NO":999,"REV_AT_EPOCH":4635,"BSTAR":4.3022649e-5,"MEAN_MOTION_DOT":9.15e-6,"MEAN_MOTION_DDOT":0},{"OBJECT_NAME":"STARLINK-32449","OBJECT_ID":"2024-193K","EPOCH":"2025-08-24T13:17:43.448640","MEAN_MOTION":15.30197411,"ECCENTRICITY":0.00011064,"INCLINATION":53.16,"RA_OF_ASC_NODE":286.7282,"ARG_OF_PERICENTER":80.7794,"MEAN_ANOMALY":279.3332,"EPHEMERIS_TYPE":0,"CLASSIFICATION_TYPE":"U","NORAD_CAT_ID":61670,"ELEMENT_SET_NO":999,"REV_AT_EPOCH":4634,"BSTAR":4.533337e-5,"MEAN_MOTION_DOT":9.84e-6,"MEAN_MOTION_DDOT":0},{"OBJECT_NAME":"STARLINK-32453","OBJECT_ID":"2024-193L","EPOCH":"2025-08-24T09:51:23.100192","MEAN_MOTION":15.30189119,"ECCENTRICITY":0.00013021,"INCLINATION":53.1596,"RA_OF_ASC_NODE":287.2567,"ARG_OF_PERICENTER":81.2751,"MEAN_ANOMALY":278.8397,"EPHEMERIS_TYPE":0,"CLASSIFICATION_TYPE":"U","NORAD_CAT_ID":61671,"ELEMENT_SET_NO":999,"REV_AT_EPOCH":4632,"BSTAR":2.1944803e-5,"MEAN_MOTION_DOT":2.91e-6,"MEAN_MOTION_DDOT":0},{"OBJECT_NAME":"STARLINK-32443","OBJECT_ID":"2024-193M","EPOCH":"2025-08-24T12:56:27.164256","MEAN_MOTION":15.30191682,"ECCENTRICITY":0.00012791,"INCLINATION":53.1594,"RA_OF_ASC_NODE":286.6367,"ARG_OF_PERICENTER":80.6086,"MEAN_ANOMALY":279.5059,"EPHEMERIS_TYPE":0,"CLASSIFICATION_TYPE":"U","NORAD_CAT_ID":61672,"ELEMENT_SET_NO":999,"REV_AT_EPOCH":4634,"BSTAR":1.0201573e-5,"MEAN_MOTION_DOT":-5.7e-7,"MEAN_MOTION_DDOT":0},{"OBJECT_NAME":"STARLINK-32417","OBJECT_ID":"2024-193N","EPOCH":"2025-08-24T09:42:16.163136","MEAN_MOTION":15.30189957,"ECCENTRICITY":0.00012775,"INCLINATION":53.1595,"RA_OF_ASC_NODE":287.2162,"ARG_OF_PERICENTER":86.5816,"MEAN_ANOMALY":273.5331,"EPHEMERIS_TYPE":0,"CLASSIFICATION_TYPE":"U","NORAD_CAT_ID":61673,"ELEMENT_SET_NO":999,"REV_AT_EPOCH":4632,"BSTAR":7.623426e-6,"MEAN_MOTION_DOT":-1.33e-6,"MEAN_MOTION_DDOT":0},{"OBJECT_NAME":"STARLINK-32326","OBJECT_ID":"2024-193P","EPOCH":"2025-08-24T11:13:17.009472","MEAN_MOTION":15.30187132,"ECCENTRICITY":0.0001213,"INCLINATION":53.1596,"RA_OF_ASC_NODE":286.8996,"ARG_OF_PERICENTER":82.9792,"MEAN_ANOMALY":277.1347,"EPHEMERIS_TYPE":0,"CLASSIFICATION_TYPE":"U","NORAD_CAT_ID":61674,"ELEMENT_SET_NO":999,"REV_AT_EPOCH":4633,"BSTAR":2.08716e-7,"MEAN_MOTION_DOT":-3.53e-6,"MEAN_MOTION_DDOT":0},{"OBJECT_NAME":"STARLINK-32294","OBJECT_ID":"2024-193Q","EPOCH":"2025-08-24T12:42:45.500256","MEAN_MOTION":15.3020547,"ECCENTRICITY":7.97e-5,"INCLINATION":53.1598,"RA_OF_ASC_NODE":286.5751,"ARG_OF_PERICENTER":92.5694,"MEAN_ANOMALY":267.5399,"EPHEMERIS_TYPE":0,"CLASSIFICATION_TYPE":"U","NORAD_CAT_ID":61675,"ELEMENT_SET_NO":999,"REV_AT_EPOCH":4634,"BSTAR":8.3476462e-5,"MEAN_MOTION_DOT":2.115e-5,"MEAN_MOTION_DDOT":0},{"OBJECT_NAME":"STARLINK-32309","OBJECT_ID":"2024-193R","EPOCH":"2025-08-24T10:53:31.576416","MEAN_MOTION":15.30192106,"ECCENTRICITY":0.00011714,"INCLINATION":53.1599,"RA_OF_ASC_NODE":286.8118,"ARG_OF_PERICENTER":90.2808,"MEAN_ANOMALY":269.8327,"EPHEMERIS_TYPE":0,"CLASSIFICATION_TYPE":"U","NORAD_CAT_ID":61676,"ELEMENT_SET_NO":999,"REV_AT_EPOCH":4633,"BSTAR":-2.862261e-6,"MEAN_MOTION_DOT":-4.44e-6,"MEAN_MOTION_DDOT":0},{"OBJECT_NAME":"STARLINK-32323","OBJECT_ID":"2024-193S","EPOCH":"2025-08-24T11:02:38.831424","MEAN_MOTION":15.30188504,"ECCENTRICITY":0.0001252,"INCLINATION":53.1599,"RA_OF_ASC_NODE":286.8525,"ARG_OF_PERICENTER":79.8796,"MEAN_ANOMALY":280.2346,"EPHEMERIS_TYPE":0,"CLASSIFICATION_TYPE":"U","NORAD_CAT_ID":61677,"ELEMENT_SET_NO":999,"REV_AT_EPOCH":4633,"BSTAR":-1.7800254e-5,"MEAN_MOTION_DOT":-8.86e-6,"MEAN_MOTION_DDOT":0},{"OBJECT_NAME":"STARLINK-32363","OBJECT_ID":"2024-193T","EPOCH":"2025-08-24T12:30:37.074816","MEAN_MOTION":15.30189921,"ECCENTRICITY":0.00011317,"INCLINATION":53.16,"RA_OF_ASC_NODE":286.5219,"ARG_OF_PERICENTER":90.2291,"MEAN_ANOMALY":269.8839,"EPHEMERIS_TYPE":0,"CLASSIFICATION_TYPE":"U","NORAD_CAT_ID":61678,"ELEMENT_SET_NO":999,"REV_AT_EPOCH":4634,"BSTAR":1.380808e-6,"MEAN_MOTION_DOT":-3.18e-6,"MEAN_MOTION_DDOT":0},{"OBJECT_NAME":"STARLINK-32395","OBJECT_ID":"2024-193U","EPOCH":"2025-08-24T09:15:04.677120","MEAN_MOTION":15.30190197,"ECCENTRICITY":0.00010375,"INCLINATION":53.1596,"RA_OF_ASC_NODE":287.8061,"ARG_OF_PERICENTER":87.0712,"MEAN_ANOMALY":273.0408,"EPHEMERIS_TYPE":0,"CLASSIFICATION_TYPE":"U","NORAD_CAT_ID":61679,"ELEMENT_SET_NO":999,"REV_AT_EPOCH":4631,"BSTAR":8.15393e-7,"MEAN_MOTION_DOT":-3.35e-6,"MEAN_MOTION_DDOT":0},{"OBJECT_NAME":"STARLINK-32412","OBJECT_ID":"2024-193V","EPOCH":"2025-08-24T10:38:29.565600","MEAN_MOTION":15.30194695,"ECCENTRICITY":0.00011047,"INCLINATION":53.1601,"RA_OF_ASC_NODE":287.4551,"ARG_OF_PERICENTER":88.9706,"MEAN_ANOMALY":271.1421,"EPHEMERIS_TYPE":0,"CLASSIFICATION_TYPE":"U","NORAD_CAT_ID":61680,"ELEMENT_SET_NO":999,"REV_AT_EPOCH":4632,"BSTAR":4.919527e-6,"MEAN_MOTION_DOT":-2.13e-6,"MEAN_MOTION_DDOT":0},{"OBJECT_NAME":"STARLINK-32426","OBJECT_ID":"2024-193W","EPOCH":"2025-08-24T10:44:34.266912","MEAN_MOTION":15.30194723,"ECCENTRICITY":0.00012012,"INCLINATION":53.1604,"RA_OF_ASC_NODE":287.4818,"ARG_OF_PERICENTER":103.0672,"MEAN_ANOMALY":257.0463,"EPHEMERIS_TYPE":0,"CLASSIFICATION_TYPE":"U","NORAD_CAT_ID":61681,"ELEMENT_SET_NO":999,"REV_AT_EPOCH":4632,"BSTAR":-1.4343347e-5,"MEAN_MOTION_DOT":-7.84e-6,"MEAN_MOTION_DDOT":0},{"OBJECT_NAME":"STARLINK-32429","OBJECT_ID":"2024-193X","EPOCH":"2025-08-24T11:05:41.422272","MEAN_MOTION":15.30166905,"ECCENTRICITY":0.00015367,"INCLINATION":53.1606,"RA_OF_ASC_NODE":286.858,"ARG_OF_PERICENTER":92.7824,"MEAN_ANOMALY":267.3353,"EPHEMERIS_TYPE":0,"CLASSIFICATION_TYPE":"U","NORAD_CAT_ID":61682,"ELEMENT_SET_NO":999,"REV_AT_EPOCH":4633,"BSTAR":-8.497408e-6,"MEAN_MOTION_DOT":-6.11e-6,"MEAN_MOTION_DDOT":0},{"OBJECT_NAME":"STARLINK-11335 [DTC]","OBJECT_ID":"2024-195A","EPOCH":"2025-08-24T09:48:59.899968","MEAN_MOTION":15.69713266,"ECCENTRICITY":0.00011027,"INCLINATION":53.1591,"RA_OF_ASC_NODE":279.1365,"ARG_OF_PERICENTER":93.0328,"MEAN_ANOMALY":267.0816,"EPHEMERIS_TYPE":0,"CLASSIFICATION_TYPE":"U","NORAD_CAT_ID":61687,"ELEMENT_SET_NO":999,"REV_AT_EPOCH":4804,"BSTAR":-3.325108e-6,"MEAN_MOTION_DOT":-9.91e-6,"MEAN_MOTION_DDOT":0},{"OBJECT_NAME":"STARLINK-11344 [DTC]","OBJECT_ID":"2024-195B","EPOCH":"2025-08-24T09:41:56.037984","MEAN_MOTION":15.69712177,"ECCENTRICITY":0.00010287,"INCLINATION":53.158,"RA_OF_ASC_NODE":279.1028,"ARG_OF_PERICENTER":89.1904,"MEAN_ANOMALY":270.9231,"EPHEMERIS_TYPE":0,"CLASSIFICATION_TYPE":"U","NORAD_CAT_ID":61688,"ELEMENT_SET_NO":999,"REV_AT_EPOCH":4804,"BSTAR":-2.763063e-6,"MEAN_MOTION_DOT":-9.23e-6,"MEAN_MOTION_DDOT":0},{"OBJECT_NAME":"STARLINK-11312 [DTC]","OBJECT_ID":"2024-195C","EPOCH":"2025-08-24T09:34:52.248576","MEAN_MOTION":15.69711427,"ECCENTRICITY":0.00011076,"INCLINATION":53.1574,"RA_OF_ASC_NODE":279.0715,"ARG_OF_PERICENTER":81.1563,"MEAN_ANOMALY":278.958,"EPHEMERIS_TYPE":0,"CLASSIFICATION_TYPE":"U","NORAD_CAT_ID":61689,"ELEMENT_SET_NO":999,"REV_AT_EPOCH":4804,"BSTAR":5.030685e-6,"MEAN_MOTION_DOT":2.1e-7,"MEAN_MOTION_DDOT":0},{"OBJECT_NAME":"STARLINK-11340 [DTC]","OBJECT_ID":"2024-195D","EPOCH":"2025-08-24T09:27:48.625056","MEAN_MOTION":15.69706082,"ECCENTRICITY":0.00010888,"INCLINATION":53.1583,"RA_OF_ASC_NODE":279.0393,"ARG_OF_PERICENTER":86.3214,"MEAN_ANOMALY":273.7928,"EPHEMERIS_TYPE":0,"CLASSIFICATION_TYPE":"U","NORAD_CAT_ID":61690,"ELEMENT_SET_NO":999,"REV_AT_EPOCH":4804,"BSTAR":-1.192222e-6,"MEAN_MOTION_DOT":-7.33e-6,"MEAN_MOTION_DDOT":0},{"OBJECT_NAME":"STARLINK-11339 [DTC]","OBJECT_ID":"2024-195E","EPOCH":"2025-08-24T09:13:41.009952","MEAN_MOTION":15.6970716,"ECCENTRICITY":0.00013541,"INCLINATION":53.1589,"RA_OF_ASC_NODE":278.972,"ARG_OF_PERICENTER":68.2818,"MEAN_ANOMALY":291.8344,"EPHEMERIS_TYPE":0,"CLASSIFICATION_TYPE":"U","NORAD_CAT_ID":61691,"ELEMENT_SET_NO":999,"REV_AT_EPOCH":4804,"BSTAR":4.727992e-6,"MEAN_MOTION_DOT":-1.6e-7,"MEAN_MOTION_DDOT":0},{"OBJECT_NAME":"STARLINK-11315 [DTC]","OBJECT_ID":"2024-195F","EPOCH":"2025-08-24T09:20:45.315168","MEAN_MOTION":15.69695296,"ECCENTRICITY":0.00010811,"INCLINATION":53.1584,"RA_OF_ASC_NODE":279.0054,"ARG_OF_PERICENTER":92.5682,"MEAN_ANOMALY":267.5459,"EPHEMERIS_TYPE":0,"CLASSIFICATION_TYPE":"U","NORAD_CAT_ID":61692,"ELEMENT_SET_NO":999,"REV_AT_EPOCH":4804,"BSTAR":-1.1790346e-5,"MEAN_MOTION_DOT":-2.016e-5,"MEAN_MOTION_DDOT":0},{"OBJECT_NAME":"STARLINK-11366 [DTC]","OBJECT_ID":"2024-195G","EPOCH":"2025-08-24T09:06:37.045152","MEAN_MOTION":15.69707852,"ECCENTRICITY":0.00013338,"INCLINATION":53.1592,"RA_OF_ASC_NODE":278.9417,"ARG_OF_PERICENTER":71.9885,"MEAN_ANOMALY":288.1278,"EPHEMERIS_TYPE":0,"CLASSIFICATION_TYPE":"U","NORAD_CAT_ID":61693,"ELEMENT_SET_NO":999,"REV_AT_EPOCH":4804,"BSTAR":3.893656e-6,"MEAN_MOTION_DOT":-1.17e-6,"MEAN_MOTION_DDOT":0},{"OBJECT_NAME":"STARLINK-11348 [DTC]","OBJECT_ID":"2024-195H","EPOCH":"2025-08-24T08:59:33.220320","MEAN_MOTION":15.69710193,"ECCENTRICITY":0.00012877,"INCLINATION":53.1594,"RA_OF_ASC_NODE":278.9077,"ARG_OF_PERICENTER":93.265,"MEAN_ANOMALY":266.8515,"EPHEMERIS_TYPE":0,"CLASSIFICATION_TYPE":"U","NORAD_CAT_ID":61694,"ELEMENT_SET_NO":999,"REV_AT_EPOCH":4804,"BSTAR":2.837479e-6,"MEAN_MOTION_DOT":-2.45e-6,"MEAN_MOTION_DDOT":0},{"OBJECT_NAME":"STARLINK-11327 [DTC]","OBJECT_ID":"2024-195J","EPOCH":"2025-08-24T08:52:29.540640","MEAN_MOTION":15.69705104,"ECCENTRICITY":0.00014032,"INCLINATION":53.1595,"RA_OF_ASC_NODE":278.8751,"ARG_OF_PERICENTER":83.9069,"MEAN_ANOMALY":276.2109,"EPHEMERIS_TYPE":0,"CLASSIFICATION_TYPE":"U","NORAD_CAT_ID":61695,"ELEMENT_SET_NO":999,"REV_AT_EPOCH":4804,"BSTAR":9.864184e-6,"MEAN_MOTION_DOT":6.06e-6,"MEAN_MOTION_DDOT":0}]
